[{"OBJECT_NAME":"ARCSTONE","OBJECT_ID":"2025-135N","EPOCH":"2026-03-09T21:21:29.017152","MEAN_MOTION":15.28638458,"ECCENTRICITY":0.00041199,"INCLINATION":97.4495,"RA_OF_ASC_NODE":185.9194,"ARG_OF_PERICENTER":166.7863,"MEAN_ANOMALY":193.3485,"EPHEMERIS_TYPE":0,"CLASSIFICATION_TYPE":"U","NORAD_CAT_ID":64540,"ELEMENT_SET_NO":999,"REV_AT_EPOCH":3984,"BSTAR":0.00094899777,"MEAN_MOTION_DOT":0.00026427,"MEAN_MOTION_DDOT":0},{"OBJECT_NAME":"STARLINK-35489","OBJECT_ID":"2025-223D","EPOCH":"2026-03-09T21:42:49.604256","MEAN_MOTION":15.30190847,"ECCENTRICITY":0.00011573,"INCLINATION":53.1579,"RA_OF_ASC_NODE":293.5269,"ARG_OF_PERICENTER":96.0825,"MEAN_ANOMALY":264.0308,"EPHEMERIS_TYPE":0,"CLASSIFICATION_TYPE":"U","NORAD_CAT_ID":65857,"ELEMENT_SET_NO":999,"REV_AT_EPOCH":2423,"BSTAR":0.00066771566,"MEAN_MOTION_DOT":0.00019463,"MEAN_MOTION_DDOT":0}]
